QB50P1                  
1 40025U 14033R   26129.45496641  .00006677  00000+0  33503-3 0  9993
2 40025  98.0988 137.9036 0008728  10.8785 349.2634 15.17661614647150
DTUSAT-2                
1 40030U 14033W   26129.46134694  .00006304  00000+0  34596-3 0  9997
2 40030  98.0872 124.7482 0008257  20.2966 339.8591 15.14514551646824
QB50P2                  
1 40032U 14033Y   26129.52533624  .00005570  00000+0  30500-3 0  9997
2 40032  98.0759 124.0171 0006104 317.2310  42.8444 15.14665856646811
PERSEUS-M1              
1 40039U 14033AF  26129.36468797  .00001156  00000+0  10975-3 0  9994
2 40039  97.9623  72.8693 0012955  68.9578 291.3026 14.95500089644833
POLYITAN-1              
1 40042U 14033AJ  26129.52960976  .00012942  00000+0  42212-3 0  9996
2 40042  98.0980 152.1738 0005366 282.4820  77.5819 15.31941104647675
TIGRISAT                
1 40043U 14033AK  26129.37333003  .00001920  00000+0  22673-3 0  9998
2 40043  97.7786 280.2898 0048997 200.4241 159.5016 14.84997450639864
CANX-4                  
1 40055U 14034C   26129.37684689  .00000681  00000+0  94770-4 0  9992
2 40055  98.3174   3.2570 0013726 131.8729 228.3656 14.81192728638782
CANX-5                  
1 40056U 14034D   26129.37572764  .00000680  00000+0  94571-4 0  9991
2 40056  98.3175   3.2970 0013718 132.0868 228.1512 14.81209762629591
GONETS-M 10             
1 40063U 14036C   26129.51407512  .00000113  00000+0  74234-3 0  9999
2 40063  82.5112 331.7029 0021064 225.2376 134.6991 12.42944812537442
METEOR-M 2              
1 40069U 14037A   26129.50129995  .00000079  00000+0  55212-4 0  9998
2 40069  98.5100 106.6158 0006321 139.0631 221.1022 14.21450523613823
DX1                     
1 40071U 14037C   26129.47675852  .00000615  00000+0  70478-4 0  9992
2 40071  98.3846  88.8409 0008245  45.4135 314.7752 14.89862217640344
UKUBE-1                 
1 40074U 14037F   26129.48498253  .00006243  00000+0  35857-3 0  9998
2 40074  98.4248 128.7128 0000610  34.8391 325.2877 15.12937450642706
GAOFEN-2                
1 40118U 14049A   26129.52711346  .00000620  00000+0  87217-4 0  9997
2 40118  98.0123 193.7675 0007554   9.9424 350.1936 14.80858580633518
BRITE-PL2 (HEWELIUSZ)   
1 40119U 14049B   26129.27282956  .00001524  00000+0  14672-3 0  9998
2 40119  97.9054 240.9869 0012857 235.3242 124.6766 14.94450146635636
CBERS 4                 
1 40336U 14079A   26129.49188147  .00000312  00000+0  12306-3 0  9999
2 40336  98.3553 187.5319 0001902 107.6422 252.4972 14.35499213598407
SMAP                    
1 40376U 15003A   26129.51575465  .00000309  00000+0  68878-4 0  9999
2 40376  98.1288 137.1567 0001484  70.4216 289.7146 14.63404723601968
GONETS-M 11             
1 40552U 15020A   26129.53048402  .00000163  00000+0  11048-2 0  9995
2 40552  82.4874  55.0750 0017373  85.2489 275.0574 12.42876003503933
GONETS-M 12             
1 40553U 15020B   26129.50441903  .00000102  00000+0  66489-3 0  9999
2 40553  82.4907  56.2049 0016420  71.1448 289.1411 12.42890190503924
GONETS-M 13             
1 40554U 15020C   26129.47724803  .00000030  00000+0  14689-3 0  9994
2 40554  82.4871  54.8481 0015002  57.2106 303.0417 12.42868764503890
DMC3-FM1                
1 40715U 15032A   26129.54694307  .00000046  00000+0  11237-4 0  9993
2 40715  97.6510 356.2275 0005526 164.5102 195.6284 14.85694649584170
DMC3-FM2                
1 40716U 15032B   26129.56912891 -.00000061  00000+0 -10901-5 0  9994
2 40716  97.6562 357.7958 0005888 172.3166 187.8141 14.85697350584177
DMC3-FM3                
1 40717U 15032C   26129.52487105  .00000522  00000+0  66058-4 0  9999
2 40717  97.6614 359.4815 0005210 169.3552 190.7775 14.85698353584171
CARBONITE 1 (CBNT-1)    
1 40718U 15032D   26129.53454338  .00001684  00000+0  21069-3 0  9995
2 40718  97.6505 309.2260 0015905  64.1482 296.1371 14.83471152583619
LILACSAT-2              
1 40908U 15049K   26129.55640998  .00013057  00000+0  23292-3 0  9992
2 40908  97.4701 164.9590 0007954  47.8499 312.3427 15.50177980589761
COSMOS 2507 (RODNIK-S *)
1 40920U 15050A   26129.51439265 -.00000012  00000+0 -16024-3 0  9991
2 40920  82.4891 103.7480 0011193  74.5781 285.6534 12.42925567482054
COSMOS 2508 (RODNIK-S *)
1 40921U 15050B   26129.54950806 -.00000036  00000+0 -33167-3 0  9997
2 40921  82.4844 102.2458 0015381 105.2967 254.9814 12.42912620482048
COSMOS 2509 (RODNIK-S *)
1 40922U 15050C   26129.48838928  .00000007  00000+0 -21659-4 0  9992
2 40922  82.4852 102.3822 0015491 121.6971 238.5622 12.42882475482075
