OBJECT_NAME,OBJECT_ID,EPOCH,MEAN_MOTION,ECCENTRICITY,INCLINATION,RA_OF_ASC_NODE,ARG_OF_PERICENTER,MEAN_ANOMALY,EPHEMERIS_TYPE,CLASSIFICATION_TYPE,NORAD_CAT_ID,ELEMENT_SET_NO,REV_AT_EPOCH,BSTAR,MEAN_MOTION_DOT,MEAN_MOTION_DDOT
QB50P1,2014-033R,2026-05-09T10:55:09.097824,15.17661614,.0008728,98.0988,137.9036,10.8785,349.2634,0,U,40025,999,64715,.33503E-3,.6677E-4,0
DTUSAT-2,2014-033W,2026-05-09T11:04:20.375616,15.14514551,.0008257,98.0872,124.7482,20.2966,339.8591,0,U,40030,999,64682,.34596E-3,.6304E-4,0
QB50P2,2014-033Y,2026-05-09T12:36:29.051136,15.14665856,.0006104,98.0759,124.0171,317.2310,42.8444,0,U,40032,999,64681,.305E-3,.557E-4,0
PERSEUS-M1,2014-033AF,2026-05-09T08:45:09.040608,14.95500089,.0012955,97.9623,72.8693,68.9578,291.3026,0,U,40039,999,64483,.10975E-3,.1156E-4,0
POLYITAN-1,2014-033AJ,2026-05-09T12:42:38.283264,15.31941104,.0005366,98.0980,152.1738,282.4820,77.5819,0,U,40042,999,64767,.42212E-3,.12942E-3,0
TIGRISAT,2014-033AK,2026-05-09T08:57:35.714592,14.84997450,.0048997,97.7786,280.2898,200.4241,159.5016,0,U,40043,999,63986,.22673E-3,.192E-4,0
CANX-4,2014-034C,2026-05-09T09:02:39.571296,14.81192728,.0013726,98.3174,3.2570,131.8729,228.3656,0,U,40055,999,63878,.9477E-4,.681E-5,0
CANX-5,2014-034D,2026-05-09T09:01:02.868096,14.81209762,.0013718,98.3175,3.2970,132.0868,228.1512,0,U,40056,999,62959,.94571E-4,.68E-5,0
GONETS-M 10,2014-036C,2026-05-09T12:20:16.090368,12.42944812,.0021064,82.5112,331.7029,225.2376,134.6991,0,U,40063,999,53744,.74234E-3,.113E-5,0
METEOR-M 2,2014-037A,2026-05-09T12:01:52.315680,14.21450523,.0006321,98.5100,106.6158,139.0631,221.1022,0,U,40069,999,61382,.55212E-4,.79E-6,0
DX1,2014-037C,2026-05-09T11:26:31.936128,14.89862217,.0008245,98.3846,88.8409,45.4135,314.7752,0,U,40071,999,64034,.70478E-4,.615E-5,0
UKUBE-1,2014-037F,2026-05-09T11:38:22.490592,15.12937450,.000061,98.4248,128.7128,34.8391,325.2877,0,U,40074,999,64270,.35857E-3,.6243E-4,0
GAOFEN-2,2014-049A,2026-05-09T12:39:02.602944,14.80858580,.0007554,98.0123,193.7675,9.9424,350.1936,0,U,40118,999,63351,.87217E-4,.62E-5,0
BRITE-PL2 (HEWELIUSZ),2014-049B,2026-05-09T06:32:52.473984,14.94450146,.00128576,97.9054,240.9869,235.3242,124.6766,0,U,40119,999,63563,.14672435E-3,.1524E-4,0
CBERS 4,2014-079A,2026-05-09T11:48:18.559008,14.35499213,.0001902,98.3553,187.5319,107.6422,252.4972,0,U,40336,999,59840,.12306E-3,.312E-5,0
SMAP,2015-003A,2026-05-09T12:22:41.201760,14.63404723,.0001484,98.1288,137.1567,70.4216,289.7146,0,U,40376,999,60196,.68878E-4,.309E-5,0
GONETS-M 11,2015-020A,2026-05-09T12:43:53.819328,12.42876003,.0017373,82.4874,55.0750,85.2489,275.0574,0,U,40552,999,50393,.11048E-2,.163E-5,0
GONETS-M 12,2015-020B,2026-05-09T12:06:21.804192,12.42890190,.001642,82.4907,56.2049,71.1448,289.1411,0,U,40553,999,50392,.66489E-3,.102E-5,0
GONETS-M 13,2015-020C,2026-05-09T11:27:14.229792,12.42868764,.0015002,82.4871,54.8481,57.2106,303.0417,0,U,40554,999,50389,.14689E-3,.3E-6,0
DMC3-FM1,2015-032A,2026-05-09T13:07:35.881248,14.85694649,.0005526,97.6510,356.2275,164.5102,195.6284,0,U,40715,999,58417,.11237E-4,.46E-6,0
DMC3-FM2,2015-032B,2026-05-09T13:39:32.737824,14.85697350,.0005888,97.6562,357.7958,172.3166,187.8141,0,U,40716,999,58417,-.10901E-5,-.61E-6,0
DMC3-FM3,2015-032C,2026-05-09T12:35:48.858720,14.85698353,.000521,97.6614,359.4815,169.3552,190.7775,0,U,40717,999,58417,.66058E-4,.522E-5,0
CARBONITE 1 (CBNT-1),2015-032D,2026-05-09T12:49:44.548032,14.83471152,.0015905,97.6505,309.2260,64.1482,296.1371,0,U,40718,999,58361,.21069E-3,.1684E-4,0
LILACSAT-2,2015-049K,2026-05-09T13:21:13.822272,15.50177980,.0007954,97.4701,164.9590,47.8499,312.3427,0,U,40908,999,58976,.23292E-3,.13057E-3,0
COSMOS 2507 (RODNIK-S 13),2015-050A,2026-05-09T12:20:43.524960,12.42925567,.0011193,82.4891,103.7480,74.5781,285.6534,0,U,40920,999,48205,-.16024E-3,-.12E-6,0
COSMOS 2508 (RODNIK-S 14),2015-050B,2026-05-09T13:11:17.496384,12.42912620,.0015381,82.4844,102.2458,105.2967,254.9814,0,U,40921,999,48204,-.33167E-3,-.36E-6,0
COSMOS 2509 (RODNIK-S 15),2015-050C,2026-05-09T11:43:16.833792,12.42882475,.0015491,82.4852,102.3822,121.6971,238.5622,0,U,40922,999,48207,-.21659E-4,.7E-7,0
